NORAD_CAT_ID,OBJECT_NAME,OBJECT_TYPE,EPOCH,MEAN_MOTION,ECCENTRICITY,INCLINATION,RA_OF_ASC_NODE,ARG_OF_PERICENTER,MEAN_ANOMALY,BSTAR,MEAN_MOTION_DOT,MEAN_MOTION_DDOT,TLE_LINE0,TLE_LINE1,TLE_LINE2,SEMIMAJOR_AXIS,PERIOD,APOGEE,PERIGEE,DECAYED
54055.0,STARLINK-5158,PAYLOAD,2024-01-24 19:50:40,15.08834957,0.0001177,53.2143,222.7833,96.5685,263.5441,0.00028767,4.293e-05,0.0,0 STARLINK-5158,1 54055U 22136E   24024.82685441  .00004293  00000-0  28767-3 0  9994,2 54055  53.2143 222.7833 0001177  96.5685 263.5441 15.08834957 70340,6917.896,95.438,540.575,538.947,0.0
54055.0,STARLINK-5158,PAYLOAD,2024-01-24 21:26:03,15.08839912,0.0001219,53.2144,222.486,95.297,264.8161,0.00014732,2.058e-05,0.0,0 STARLINK-5158,1 54055U 22136E   24024.89309178  .00002058  00000-0  14732-3 0  9995,2 54055  53.2144 222.4860 0001219  95.2970 264.8161 15.08839912 69873,6917.881,95.438,540.589,538.902,0.0
54055.0,STARLINK-5158,PAYLOAD,2024-01-24 23:01:26,15.08840841,0.0001213,53.2143,222.1887,94.5988,265.5142,0.00015466,2.174e-05,0.0,0 STARLINK-5158,1 54055U 22136E   24024.95933136  .00002174  00000-0  15466-3 0  9993,2 54055  53.2143 222.1887 0001213  94.5988 265.5142 15.08840841 69884,6917.878,95.438,540.582,538.904,0.0
54055.0,STARLINK-5158,PAYLOAD,2024-01-25 18:06:03,15.08843222,0.0001192,53.2156,218.6202,94.9857,265.1271,6.4871e-05,7.45e-06,0.0,0 STARLINK-5158,1 54055U 22136E   24025.75420991  .00000745  00000-0  64871-4 0  9999,2 54055  53.2156 218.6202 0001192  94.9857 265.1271 15.08843222 70005,6917.871,95.437,540.56,538.911,0.0
54055.0,STARLINK-5158,PAYLOAD,2024-01-26 17:56:50,15.0883926,0.0001139,53.2156,214.1597,92.066,268.0462,0.00010509,1.385e-05,0.0,0 STARLINK-5158,1 54055U 22136E   24026.74781200  .00001385  00000-0  10509-3 0  9991,2 54055  53.2156 214.1597 0001139  92.0660 268.0462 15.08839260 70635,6917.883,95.438,540.536,538.96,0.0
54055.0,STARLINK-5158,PAYLOAD,2024-01-27 13:01:28,15.08838265,0.0001155,53.2157,210.5901,87.2542,272.8582,6.7713e-05,7.9e-06,0.0,0 STARLINK-5158,1 54055U 22136E   24027.54269520  .00000790  00000-0  67713-4 0  9995,2 54055  53.2157 210.5901 0001155  87.2542 272.8582 15.08838265 70278,6917.886,95.438,540.55,538.952,0.0
54055.0,STARLINK-5158,PAYLOAD,2024-01-27 19:23:01,15.08838314,0.0001158,53.2157,209.4011,85.0708,275.0416,5.6018e-05,6.04e-06,0.0,0 STARLINK-5158,1 54055U 22136E   24027.80765554  .00000604  00000-0  56018-4 0  9992,2 54055  53.2157 209.4011 0001158  85.0708 275.0416 15.08838314 70793,6917.886,95.438,540.552,538.949,0.0
54055.0,STARLINK-5158,PAYLOAD,2024-01-27 20:58:24,15.08837918,0.0001193,53.216,209.1043,91.2418,268.871,4.8134e-05,4.78e-06,0.0,0 STARLINK-5158,1 54055U 22136E   24027.87389511  .00000478  00000-0  48134-4 0  9993,2 54055  53.2160 209.1043 0001193  91.2418 268.8710 15.08837918 70320,6917.887,95.438,540.577,538.926,0.0
54055.0,STARLINK-5158,PAYLOAD,2024-01-28 11:16:52,15.08837863,0.0001194,53.2158,206.4275,86.9244,273.1884,9.4527e-05,1.217e-05,0.0,0 STARLINK-5158,1 54055U 22136E   24028.47005477  .00001217  00000-0  94527-4 0  9995,2 54055  53.2158 206.4275 0001194  86.9244 273.1884 15.08837863 70413,6917.887,95.438,540.578,538.926,0.0
54055.0,STARLINK-5158,PAYLOAD,2024-01-28 19:13:48,15.08842122,0.0001208,53.216,204.9426,87.1391,272.974,0.00012444,1.693e-05,0.0,0 STARLINK-5158,1 54055U 22136E   24028.80125189  .00001693  00000-0  12444-3 0  9990,2 54055  53.2160 204.9426 0001208  87.1391 272.9740 15.08842122 70466,6917.874,95.437,540.575,538.903,0.0
54055.0,STARLINK-5158,PAYLOAD,2024-01-29 11:07:39,15.08843002,0.0001253,53.2162,201.9692,83.7135,276.4,0.0001118,1.492e-05,0.0,0 STARLINK-5158,1 54055U 22136E   24029.46365201  .00001492  00000-0  11180-3 0  9997,2 54055  53.2162 201.9692 0001253  83.7135 276.4000 15.08843002 71049,6917.871,95.437,540.603,538.869,0.0
54055.0,STARLINK-5158,PAYLOAD,2024-01-30 10:58:26,15.08843336,0.0001342,53.2166,197.5088,77.0771,283.0371,5.2548e-05,5.49e-06,0.0,0 STARLINK-5158,1 54055U 22136E   24030.45725327  .00000549  00000-0  52548-4 0  9993,2 54055  53.2166 197.5088 0001342  77.0771 283.0371 15.08843336 70711,6917.87,95.437,540.664,538.807,0.0
54055.0,STARLINK-5158,PAYLOAD,2024-01-30 17:19:59,15.08843055,0.0001347,53.2164,196.3184,77.1939,282.9204,4.5673e-05,4.39e-06,0.0,0 STARLINK-5158,1 54055U 22136E   24030.72221316  .00000439  00000-0  45673-4 0  9991,2 54055  53.2164 196.3184 0001347  77.1939 282.9204 15.08843055 71234,6917.871,95.437,540.668,538.804,0.0
54055.0,STARLINK-5158,PAYLOAD,2024-02-01 10:40:01,15.0883771,0.0001262,53.2162,188.5866,82.161,277.9525,1.7765e-05,-5e-08,0.0,0 STARLINK-5158,1 54055U 22136E   24032.44445763 -.00000005  00000-0  17765-4 0  9997,2 54055  53.2162 188.5866 0001262  82.1610 277.9525 15.08837710 71499,6917.887,95.438,540.625,538.879,0.0
54055.0,STARLINK-5158,PAYLOAD,2024-02-01 18:36:56,15.08837937,0.0001252,53.2149,187.0996,85.1561,274.9574,7.1637e-05,8.52e-06,0.0,0 STARLINK-5158,1 54055U 22136E   24032.77565652  .00000852  00000-0  71637-4 0  9990,2 54055  53.2149 187.0996 0001252  85.1561 274.9574 15.08837937 71064,6917.887,95.438,540.618,538.886,0.0
54055.0,STARLINK-5158,PAYLOAD,2024-02-02 13:41:34,15.08841284,0.0001307,53.2159,183.5315,76.3034,283.8104,4.3908e-05,4.11e-06,0.0,0 STARLINK-5158,1 54055U 22136E   24033.57053592  .00000411  00000-0  43908-4 0  9995,2 54055  53.2159 183.5315 0001307  76.3034 283.8104 15.08841284 71180,6917.876,95.437,540.646,538.837,0.0
54055.0,STARLINK-5158,PAYLOAD,2024-02-02 16:52:20,15.08842513,0.0001511,53.2167,182.9328,94.0028,266.1137,0.0001208,1.635e-05,0.0,0 STARLINK-5158,1 54055U 22136E   24033.70301355  .00001635  00000-0  12080-3 0  9998,2 54055  53.2167 182.9328 0001511  94.0028 266.1137 15.08842513 71684,6917.873,95.437,540.783,538.692,0.0
54055.0,STARLINK-5158,PAYLOAD,2024-02-03 13:32:21,15.08836918,0.0001419,53.2161,179.0693,102.7207,257.3944,4.9923e-05,5.07e-06,0.0,0 STARLINK-5158,1 54055U 22136E   24034.56414099  .00000507  00000-0  49923-4 0  9997,2 54055  53.2161 179.0693 0001419 102.7207 257.3944 15.08836918 71335,6917.89,95.438,540.736,538.773,0.0
54055.0,STARLINK-5158,PAYLOAD,2024-02-03 16:43:08,15.08837931,0.0001347,53.2164,178.4745,101.3618,258.7526,5.1133e-05,5.26e-06,0.0,0 STARLINK-5158,1 54055U 22136E   24034.69662057  .00000526  00000-0  51133-4 0  9997,2 54055  53.2164 178.4745 0001347 101.3618 258.7526 15.08837931 71832,6917.887,95.438,540.684,538.82,0.0
54055.0,STARLINK-5158,PAYLOAD,2024-02-04 13:23:08,15.0884044,0.0001408,53.2177,174.6108,97.4679,262.6473,2.3332e-05,8.3e-07,0.0,0 STARLINK-5158,1 54055U 22136E   24035.55774177  .00000083  00000-0  23332-4 0  9998,2 54055  53.2177 174.6108 0001408  97.4679 262.6473 15.08840440 71482,6917.879,95.438,540.718,538.77,0.0
54055.0,STARLINK-5158,PAYLOAD,2024-02-04 18:09:17,15.08846663,0.0001457,53.2178,173.7182,92.3831,267.7328,8.0582e-05,9.95e-06,0.0,0 STARLINK-5158,1 54055U 22136E   24035.75645660  .00000995  00000-0  80582-4 0  9996,2 54055  53.2178 173.7182 0001457  92.3831 267.7328 15.08846663 71997,6917.86,95.437,540.733,538.717,0.0
54055.0,STARLINK-5158,PAYLOAD,2024-02-05 14:49:19,15.0884068,0.0001603,53.2181,169.8504,93.6461,266.4715,5.6931e-05,6.18e-06,0.0,0 STARLINK-5158,1 54055U 22136E   24036.61758209  .00000618  00000-0  56931-4 0  9999,2 54055  53.2181 169.8504 0001603  93.6461 266.4715 15.08840680 71642,6917.878,95.438,540.852,538.634,0.0
54055.0,STARLINK-5158,PAYLOAD,2024-02-05 16:24:41,15.08843627,0.0001433,53.2171,169.5537,84.3211,275.7944,8.854e-05,1.122e-05,0.0,0 STARLINK-5158,1 54055U 22136E   24036.68381922  .00001122  00000-0  88540-4 0  9992,2 54055  53.2171 169.5537 0001433  84.3211 275.7944 15.08843627 72131,6917.869,95.437,540.726,538.743,0.0
54055.0,STARLINK-5158,PAYLOAD,2024-02-06 14:40:06,15.08845177,0.0001497,53.2168,165.3936,80.5367,279.5794,3.0151e-05,1.92e-06,0.0,0 STARLINK-5158,1 54055U 22136E   24037.61118079  .00000192  00000-0  30151-4 0  9998,2 54055  53.2168 165.3936 0001497  80.5367 279.5794 15.08845177 71792,6917.865,95.437,540.765,538.694,0.0
54055.0,STARLINK-5158,PAYLOAD,2024-02-07 14:30:53,15.0884551,0.0001343,53.2158,160.932,95.7071,264.4074,-6.5808e-06,-3.93e-06,0.0,0 STARLINK-5158,1 54055U 22136E   24038.60478071 -.00000393  00000-0 -65808-5 0  9992,2 54055  53.2158 160.9320 0001343  95.7071 264.4074 15.08845510 71941,6917.864,95.437,540.658,538.799,0.0
54055.0,STARLINK-5158,PAYLOAD,2024-02-08 11:10:55,15.08806577,0.0001281,53.2158,157.066,95.805,264.3088,0.00041071,6.249e-05,0.0,0 STARLINK-5158,1 54055U 22136E   24039.46591933  .00006249  00000-0  41071-3 0  9998,2 54055  53.2158 157.0660 0001281  95.8050 264.3088 15.08806577 72556,6917.983,95.44,540.734,538.961,0.0
54055.0,STARLINK-5158,PAYLOAD,2024-02-08 14:21:40,15.08834501,0.0001482,53.2166,156.4714,95.0773,265.0388,-2.061e-06,-3.21e-06,0.0,0 STARLINK-5158,1 54055U 22136E   24039.59839025 -.00000321  00000-0 -20610-5 0  9994,2 54055  53.2166 156.4714 0001482  95.0773 265.0388 15.08834501 72093,6917.897,95.438,540.787,538.737,0.0
54055.0,STARLINK-5158,PAYLOAD,2024-02-09 11:01:40,15.0884497,0.0001372,53.2172,152.6056,93.2144,266.9006,0.00011775,1.587e-05,0.0,0 STARLINK-5158,1 54055U 22136E   24040.45950061  .00001587  00000-0  11775-3 0  9998,2 54055  53.2172 152.6056 0001372  93.2144 266.9006 15.08844970 72703,6917.865,95.437,540.679,538.781,0.0
54055.0,STARLINK-5158,PAYLOAD,2024-02-09 14:12:26,15.08854572,0.0001467,53.2175,152.0102,90.091,270.025,0.0001233,1.676e-05,0.0,0 STARLINK-5158,1 54055U 22136E   24040.59197500  .00001676  00000-0  12330-3 0  9991,2 54055  53.2175 152.0102 0001467  90.0910 270.0250 15.08854572 72248,6917.836,95.437,540.716,538.686,0.0
54055.0,STARLINK-5158,PAYLOAD,2024-02-09 17:23:12,15.0885939,0.0001513,53.2172,151.412,95.0203,265.0962,0.0001161,1.561e-05,0.0,0 STARLINK-5158,1 54055U 22136E   24040.72445110  .00001561  00000-0  11610-3 0  9992,2 54055  53.2172 151.4120 0001513  95.0203 265.0962 15.08859390 72742,6917.821,95.436,540.733,538.639,0.0
